[{"OBJECT_NAME":"ONEWEB-0416","OBJECT_ID":"2022-012D","EPOCH":"2025-11-16T08:46:31.685664","MEAN_MOTION":13.10376588,"ECCENTRICITY":0.00015243,"INCLINATION":87.8812,"RA_OF_ASC_NODE":78.7154,"ARG_OF_PERICENTER":100.5581,"MEAN_ANOMALY":259.5718,"EPHEMERIS_TYPE":0,"CLASSIFICATION_TYPE":"U","NORAD_CAT_ID":51625,"ELEMENT_SET_NO":999,"REV_AT_EPOCH":18145,"BSTAR":-0.001548217,"MEAN_MOTION_DOT":-5.28e-6,"MEAN_MOTION_DDOT":0},{"OBJECT_NAME":"ONEWEB-0422","OBJECT_ID":"2022-012E","EPOCH":"2025-11-16T16:22:09.374880","MEAN_MOTION":13.17652016,"ECCENTRICITY":0.0002424,"INCLINATION":87.9139,"RA_OF_ASC_NODE":48.1022,"ARG_OF_PERICENTER":108.6885,"MEAN_ANOMALY":251.4509,"EPHEMERIS_TYPE":0,"CLASSIFICATION_TYPE":"U","NORAD_CAT_ID":51626,"ELEMENT_SET_NO":999,"REV_AT_EPOCH":18582,"BSTAR":2.4994e-5,"MEAN_MOTION_DOT":2.3e-7,"MEAN_MOTION_DDOT":0},{"OBJECT_NAME":"ONEWEB-0423","OBJECT_ID":"2022-012F","EPOCH":"2025-11-16T16:12:26.443584","MEAN_MOTION":13.17651182,"ECCENTRICITY":0.0001763,"INCLINATION":87.9138,"RA_OF_ASC_NODE":48.1138,"ARG_OF_PERICENTER":106.6693,"MEAN_ANOMALY":253.4632,"EPHEMERIS_TYPE":0,"CLASSIFICATION_TYPE":"U","NORAD_CAT_ID":51627,"ELEMENT_SET_NO":999,"REV_AT_EPOCH":18571,"BSTAR":-0.00025874,"MEAN_MOTION_DOT":-8.8e-7,"MEAN_MOTION_DDOT":0},{"OBJECT_NAME":"ONEWEB-0425","OBJECT_ID":"2022-012G","EPOCH":"2025-11-16T09:00:52.470720","MEAN_MOTION":13.10376145,"ECCENTRICITY":0.00012727,"INCLINATION":87.881,"RA_OF_ASC_NODE":78.6817,"ARG_OF_PERICENTER":109.1096,"MEAN_ANOMALY":251.0169,"EPHEMERIS_TYPE":0,"CLASSIFICATION_TYPE":"U","NORAD_CAT_ID":51628,"ELEMENT_SET_NO":999,"REV_AT_EPOCH":18145,"BSTAR":-0.0016020415,"MEAN_MOTION_DOT":-5.47e-6,"MEAN_MOTION_DDOT":0},{"OBJECT_NAME":"ONEWEB-0428","OBJECT_ID":"2022-012H","EPOCH":"2025-11-16T14:02:04.296480","MEAN_MOTION":13.10365027,"ECCENTRICITY":0.00018062,"INCLINATION":87.8795,"RA_OF_ASC_NODE":78.6598,"ARG_OF_PERICENTER":101.4764,"MEAN_ANOMALY":258.6566,"EPHEMERIS_TYPE":0,"CLASSIFICATION_TYPE":"U","NORAD_CAT_ID":51629,"ELEMENT_SET_NO":999,"REV_AT_EPOCH":18144,"BSTAR":-0.0044614008,"MEAN_MOTION_DOT":-1.544e-5,"MEAN_MOTION_DDOT":0},{"OBJECT_NAME":"ONEWEB-0431","OBJECT_ID":"2022-012J","EPOCH":"2025-11-16T18:48:43.984224","MEAN_MOTION":13.10374347,"ECCENTRICITY":0.0002084,"INCLINATION":87.8808,"RA_OF_ASC_NODE":78.5978,"ARG_OF_PERICENTER":87.4882,"MEAN_ANOMALY":272.6484,"EPHEMERIS_TYPE":0,"CLASSIFICATION_TYPE":"U","NORAD_CAT_ID":51630,"ELEMENT_SET_NO":999,"REV_AT_EPOCH":18152,"BSTAR":0.0019911,"MEAN_MOTION_DOT":7.08e-6,"MEAN_MOTION_DDOT":0},{"OBJECT_NAME":"ONEWEB-0434","OBJECT_ID":"2022-012K","EPOCH":"2025-11-16T18:15:26.150112","MEAN_MOTION":13.10377945,"ECCENTRICITY":0.0001104,"INCLINATION":87.8806,"RA_OF_ASC_NODE":78.6404,"ARG_OF_PERICENTER":120.2188,"MEAN_ANOMALY":239.9048,"EPHEMERIS_TYPE":0,"CLASSIFICATION_TYPE":"U","NORAD_CAT_ID":51631,"ELEMENT_SET_NO":999,"REV_AT_EPOCH":18150,"BSTAR":-0.00061758,"MEAN_MOTION_DOT":-2.03e-6,"MEAN_MOTION_DDOT":0},{"OBJECT_NAME":"ONEWEB-0435","OBJECT_ID":"2022-012L","EPOCH":"2025-11-16T14:47:29.494176","MEAN_MOTION":13.10377722,"ECCENTRICITY":0.00019663,"INCLINATION":87.8804,"RA_OF_ASC_NODE":78.6596,"ARG_OF_PERICENTER":105.9342,"MEAN_ANOMALY":254.2002,"EPHEMERIS_TYPE":0,"CLASSIFICATION_TYPE":"U","NORAD_CAT_ID":51632,"ELEMENT_SET_NO":999,"REV_AT_EPOCH":18147,"BSTAR":0.00060809117,"MEAN_MOTION_DOT":2.25e-6,"MEAN_MOTION_DDOT":0},{"OBJECT_NAME":"ONEWEB-0436","OBJECT_ID":"2022-012M","EPOCH":"2025-11-16T16:00:17.136000","MEAN_MOTION":13.17649891,"ECCENTRICITY":0.0001952,"INCLINATION":87.9141,"RA_OF_ASC_NODE":48.0939,"ARG_OF_PERICENTER":101.6927,"MEAN_ANOMALY":258.4423,"EPHEMERIS_TYPE":0,"CLASSIFICATION_TYPE":"U","NORAD_CAT_ID":51633,"ELEMENT_SET_NO":999,"REV_AT_EPOCH":18569,"BSTAR":7.9649e-5,"MEAN_MOTION_DOT":4.4e-7,"MEAN_MOTION_DDOT":0},{"OBJECT_NAME":"ONEWEB-0438","OBJECT_ID":"2022-012N","EPOCH":"2025-11-16T08:53:42.639360","MEAN_MOTION":13.10368154,"ECCENTRICITY":0.00015838,"INCLINATION":87.8805,"RA_OF_ASC_NODE":78.7095,"ARG_OF_PERICENTER":104.4339,"MEAN_ANOMALY":255.6965,"EPHEMERIS_TYPE":0,"CLASSIFICATION_TYPE":"U","NORAD_CAT_ID":51634,"ELEMENT_SET_NO":999,"REV_AT_EPOCH":18147,"BSTAR":0.0022754261,"MEAN_MOTION_DOT":8.07e-6,"MEAN_MOTION_DDOT":0},{"OBJECT_NAME":"ONEWEB-0439","OBJECT_ID":"2022-012P","EPOCH":"2025-11-16T08:58:29.546976","MEAN_MOTION":13.10376999,"ECCENTRICITY":0.00015806,"INCLINATION":87.8804,"RA_OF_ASC_NODE":78.6983,"ARG_OF_PERICENTER":102.1612,"MEAN_ANOMALY":257.9692,"EPHEMERIS_TYPE":0,"CLASSIFICATION_TYPE":"U","NORAD_CAT_ID":51635,"ELEMENT_SET_NO":999,"REV_AT_EPOCH":18145,"BSTAR":-0.0010286644,"MEAN_MOTION_DOT":-3.46e-6,"MEAN_MOTION_DDOT":0},{"OBJECT_NAME":"ONEWEB-0442","OBJECT_ID":"2022-012Q","EPOCH":"2025-11-16T15:49:21.124992","MEAN_MOTION":13.17650921,"ECCENTRICITY":0.0001086,"INCLINATION":87.9125,"RA_OF_ASC_NODE":48.1453,"ARG_OF_PERICENTER":100.3034,"MEAN_ANOMALY":259.822,"EPHEMERIS_TYPE":0,"CLASSIFICATION_TYPE":"U","NORAD_CAT_ID":51636,"ELEMENT_SET_NO":999,"REV_AT_EPOCH":18568,"BSTAR":-0.00017882,"MEAN_MOTION_DOT":-5.7e-7,"MEAN_MOTION_DDOT":0},{"OBJECT_NAME":"ONEWEB-0443","OBJECT_ID":"2022-012R","EPOCH":"2025-11-16T16:17:17.734272","MEAN_MOTION":13.1765189,"ECCENTRICITY":0.0001615,"INCLINATION":87.9128,"RA_OF_ASC_NODE":48.1475,"ARG_OF_PERICENTER":113.2239,"MEAN_ANOMALY":246.9063,"EPHEMERIS_TYPE":0,"CLASSIFICATION_TYPE":"U","NORAD_CAT_ID":51637,"ELEMENT_SET_NO":999,"REV_AT_EPOCH":18573,"BSTAR":-7.9929e-5,"MEAN_MOTION_DOT":-1.8e-7,"MEAN_MOTION_DDOT":0},{"OBJECT_NAME":"ONEWEB-0444","OBJECT_ID":"2022-012S","EPOCH":"2025-11-16T14:14:01.214304","MEAN_MOTION":13.10374162,"ECCENTRICITY":0.00016632,"INCLINATION":87.8797,"RA_OF_ASC_NODE":78.6524,"ARG_OF_PERICENTER":102.9719,"MEAN_ANOMALY":257.1594,"EPHEMERIS_TYPE":0,"CLASSIFICATION_TYPE":"U","NORAD_CAT_ID":51638,"ELEMENT_SET_NO":999,"REV_AT_EPOCH":18149,"BSTAR":-0.0018791951,"MEAN_MOTION_DOT":-6.43e-6,"MEAN_MOTION_DDOT":0},{"OBJECT_NAME":"ONEWEB-0445","OBJECT_ID":"2022-012T","EPOCH":"2025-11-16T14:45:07.038720","MEAN_MOTION":13.10377262,"ECCENTRICITY":0.00014768,"INCLINATION":87.8819,"RA_OF_ASC_NODE":78.6114,"ARG_OF_PERICENTER":94.5171,"MEAN_ANOMALY":265.6125,"EPHEMERIS_TYPE":0,"CLASSIFICATION_TYPE":"U","NORAD_CAT_ID":51639,"ELEMENT_SET_NO":999,"REV_AT_EPOCH":18150,"BSTAR":0.00054805034,"MEAN_MOTION_DOT":2.04e-6,"MEAN_MOTION_DDOT":0},{"OBJECT_NAME":"ONEWEB-0446","OBJECT_ID":"2022-012U","EPOCH":"2025-11-16T14:11:37.474944","MEAN_MOTION":13.10369078,"ECCENTRICITY":0.00015109,"INCLINATION":87.8802,"RA_OF_ASC_NODE":78.6697,"ARG_OF_PERICENTER":94.3129,"MEAN_ANOMALY":265.8171,"EPHEMERIS_TYPE":0,"CLASSIFICATION_TYPE":"U","NORAD_CAT_ID":51640,"ELEMENT_SET_NO":999,"REV_AT_EPOCH":18148,"BSTAR":-0.002664326,"MEAN_MOTION_DOT":-9.17e-6,"MEAN_MOTION_DDOT":0},{"OBJECT_NAME":"ONEWEB-0448","OBJECT_ID":"2022-012V","EPOCH":"2025-11-16T08:48:55.982304","MEAN_MOTION":13.10370621,"ECCENTRICITY":0.00016108,"INCLINATION":87.8799,"RA_OF_ASC_NODE":78.7136,"ARG_OF_PERICENTER":106.6862,"MEAN_ANOMALY":253.4443,"EPHEMERIS_TYPE":0,"CLASSIFICATION_TYPE":"U","NORAD_CAT_ID":51641,"ELEMENT_SET_NO":999,"REV_AT_EPOCH":18142,"BSTAR":-0.0027553925,"MEAN_MOTION_DOT":-9.49e-6,"MEAN_MOTION_DDOT":0},{"OBJECT_NAME":"ONEWEB-0449","OBJECT_ID":"2022-012W","EPOCH":"2025-11-16T08:56:05.806752","MEAN_MOTION":13.1037636,"ECCENTRICITY":0.00011893,"INCLINATION":87.8807,"RA_OF_ASC_NODE":78.6833,"ARG_OF_PERICENTER":113.1718,"MEAN_ANOMALY":246.9535,"EPHEMERIS_TYPE":0,"CLASSIFICATION_TYPE":"U","NORAD_CAT_ID":51642,"ELEMENT_SET_NO":999,"REV_AT_EPOCH":18143,"BSTAR":-0.001656918,"MEAN_MOTION_DOT":-5.66e-6,"MEAN_MOTION_DDOT":0},{"OBJECT_NAME":"ONEWEB-0451","OBJECT_ID":"2022-012X","EPOCH":"2025-11-16T15:55:25.207680","MEAN_MOTION":13.17652274,"ECCENTRICITY":0.0001627,"INCLINATION":87.9141,"RA_OF_ASC_NODE":48.0896,"ARG_OF_PERICENTER":105.0283,"MEAN_ANOMALY":255.1028,"EPHEMERIS_TYPE":0,"CLASSIFICATION_TYPE":"U","NORAD_CAT_ID":51643,"ELEMENT_SET_NO":999,"REV_AT_EPOCH":18567,"BSTAR":6.7839e-5,"MEAN_MOTION_DOT":3.9e-7,"MEAN_MOTION_DDOT":0},{"OBJECT_NAME":"ONEWEB-0452","OBJECT_ID":"2022-012Y","EPOCH":"2025-11-16T12:14:18.785760","MEAN_MOTION":13.1765105,"ECCENTRICITY":0.00016424,"INCLINATION":87.9133,"RA_OF_ASC_NODE":48.1772,"ARG_OF_PERICENTER":112.8629,"MEAN_ANOMALY":247.2676,"EPHEMERIS_TYPE":0,"CLASSIFICATION_TYPE":"U","NORAD_CAT_ID":51644,"ELEMENT_SET_NO":999,"REV_AT_EPOCH":18566,"BSTAR":0.0001389431,"MEAN_MOTION_DOT":6.7e-7,"MEAN_MOTION_DDOT":0},{"OBJECT_NAME":"ONEWEB-0456","OBJECT_ID":"2022-012AA","EPOCH":"2025-11-16T14:40:18.767712","MEAN_MOTION":13.10378087,"ECCENTRICITY":0.00017836,"INCLINATION":87.8817,"RA_OF_ASC_NODE":78.6031,"ARG_OF_PERICENTER":101.234,"MEAN_ANOMALY":258.8988,"EPHEMERIS_TYPE":0,"CLASSIFICATION_TYPE":"U","NORAD_CAT_ID":51646,"ELEMENT_SET_NO":999,"REV_AT_EPOCH":18150,"BSTAR":2.5302627e-5,"MEAN_MOTION_DOT":2.1e-7,"MEAN_MOTION_DDOT":0},{"OBJECT_NAME":"ONEWEB-0457","OBJECT_ID":"2022-012AB","EPOCH":"2025-11-16T14:06:49.718880","MEAN_MOTION":13.1037239,"ECCENTRICITY":0.00011703,"INCLINATION":87.88,"RA_OF_ASC_NODE":78.6581,"ARG_OF_PERICENTER":96.6019,"MEAN_ANOMALY":263.5242,"EPHEMERIS_TYPE":0,"CLASSIFICATION_TYPE":"U","NORAD_CAT_ID":51647,"ELEMENT_SET_NO":999,"REV_AT_EPOCH":18150,"BSTAR":-0.0025325269,"MEAN_MOTION_DOT":-8.71e-6,"MEAN_MOTION_DDOT":0},{"OBJECT_NAME":"ONEWEB-0458","OBJECT_ID":"2022-012AC","EPOCH":"2025-11-16T14:37:55.874208","MEAN_MOTION":13.10377702,"ECCENTRICITY":0.00015487,"INCLINATION":87.8809,"RA_OF_ASC_NODE":78.6255,"ARG_OF_PERICENTER":108.2055,"MEAN_ANOMALY":251.9241,"EPHEMERIS_TYPE":0,"CLASSIFICATION_TYPE":"U","NORAD_CAT_ID":51648,"ELEMENT_SET_NO":999,"REV_AT_EPOCH":18146,"BSTAR":-0.00017117606,"MEAN_MOTION_DOT":-4.7e-7,"MEAN_MOTION_DDOT":0}]
